{
  "type": "FeatureCollection",
  "features": [
    {
      "type": "Feature",
      "properties": {
        "norad_id": 32376,
        "name": "COSMO-SKYMED 2",
        "group": "resource",
        "lat": -14.55228732943138,
        "lon": -24.31028456183319,
        "alt_km": 627.5489072040955,
        "timestamp": "2025-12-02T06:27:52.677660+00:00",
        "meta_object_name": "COSMO-SKYMED 2",
        "meta_object_id": "2007-059A",
        "meta_epoch": "2025-12-01T19:52:05.554848",
        "meta_mean_motion": 14.82171664,
        "meta_eccentricity": 0.000147,
        "meta_inclination": 97.8807,
        "meta_ra_of_asc_node": 157.3156,
        "meta_arg_of_pericenter": 85.1487,
        "meta_mean_anomaly": 274.9894,
        "meta_ephemeris_type": 0,
        "meta_classification_type": "U",
        "meta_norad_cat_id": 32376,
        "meta_element_set_no": 999,
        "meta_rev_at_epoch": 97276,
        "meta_bstar": 9.0755e-05,
        "meta_mean_motion_dot": 6.71e-06,
        "meta_mean_motion_ddot": 0,
        "tle_line1": "1 32376U 07059A   25335.82784207  .00000671  00000+0  90755-4 0  9991",
        "tle_line2": "2 32376  97.8807 157.3156 0001470  85.1487 274.9894 14.82171664972769"
      },
      "geometry": {
        "type": "Point",
        "coordinates": [
          -24.31028456183319,
          -14.55228732943138
        ]
      }
    },
    {
      "type": "Feature",
      "properties": {
        "norad_id": 32382,
        "name": "RADARSAT-2",
        "group": "resource",
        "lat": -52.547707227062034,
        "lon": -7.621285750341476,
        "alt_km": 799.3440700326428,
        "timestamp": "2025-12-02T06:27:52.677670+00:00",
        "meta_object_name": "RADARSAT-2",
        "meta_object_id": "2007-061A",
        "meta_epoch": "2025-12-01T20:38:17.382624",
        "meta_mean_motion": 14.29982856,
        "meta_eccentricity": 0.0001081,
        "meta_inclination": 98.58,
        "meta_ra_of_asc_node": 340.6081,
        "meta_arg_of_pericenter": 90.3883,
        "meta_mean_anomaly": 269.7423,
        "meta_ephemeris_type": 0,
        "meta_classification_type": "U",
        "meta_norad_cat_id": 32382,
        "meta_element_set_no": 999,
        "meta_rev_at_epoch": 93775,
        "meta_bstar": 5.4977e-05,
        "meta_mean_motion_dot": 9.8e-07,
        "meta_mean_motion_ddot": 0,
        "tle_line1": "1 32382U 07061A   25335.85992341  .00000098  00000+0  54977-4 0  9993",
        "tle_line2": "2 32382  98.5800 340.6081 0001081  90.3883 269.7423 14.29982856937751"
      },
      "geometry": {
        "type": "Point",
        "coordinates": [
          -7.621285750341476,
          -52.547707227062034
        ]
      }
    },
    {
      "type": "Feature",
      "properties": {
        "norad_id": 32783,
        "name": "CARTOSAT-2A",
        "group": "resource",
        "lat": 80.05519540264106,
        "lon": -102.20574962927742,
        "alt_km": 620.8422798564161,
        "timestamp": "2025-12-02T06:27:52.677680+00:00",
        "meta_object_name": "CARTOSAT-2A",
        "meta_object_id": "2008-021A",
        "meta_epoch": "2025-12-01T20:17:21.962112",
        "meta_mean_motion": 14.78902354,
        "meta_eccentricity": 0.0012588,
        "meta_inclination": 97.7946,
        "meta_ra_of_asc_node": 26.0086,
        "meta_arg_of_pericenter": 38.5745,
        "meta_mean_anomaly": 321.6364,
        "meta_ephemeris_type": 0,
        "meta_classification_type": "U",
        "meta_norad_cat_id": 32783,
        "meta_element_set_no": 999,
        "meta_rev_at_epoch": 94963,
        "meta_bstar": 0.00014329,
        "meta_mean_motion_dot": 1.007e-05,
        "meta_mean_motion_ddot": 0,
        "tle_line1": "1 32783U 08021A   25335.84539308  .00001007  00000+0  14329-3 0  9991",
        "tle_line2": "2 32783  97.7946  26.0086 0012588  38.5745 321.6364 14.78902354949634"
      },
      "geometry": {
        "type": "Point",
        "coordinates": [
          -102.20574962927742,
          80.05519540264106
        ]
      }
    },
    {
      "type": "Feature",
      "properties": {
        "norad_id": 33320,
        "name": "HUANJING 1A (HJ-1A)",
        "group": "resource",
        "lat": 25.217774310225312,
        "lon": 148.63671134442026,
        "alt_km": 617.4866656141376,
        "timestamp": "2025-12-02T06:27:52.677691+00:00",
        "meta_object_name": "HUANJING 1A (HJ-1A)",
        "meta_object_id": "2008-041A",
        "meta_epoch": "2025-12-01T21:40:40.367136",
        "meta_mean_motion": 14.83337268,
        "meta_eccentricity": 0.0020686,
        "meta_inclination": 97.6533,
        "meta_ra_of_asc_node": 324.6552,
        "meta_arg_of_pericenter": 67.8721,
        "meta_mean_anomaly": 292.4687,
        "meta_ephemeris_type": 0,
        "meta_classification_type": "U",
        "meta_norad_cat_id": 33320,
        "meta_element_set_no": 999,
        "meta_rev_at_epoch": 92915,
        "meta_bstar": 0.00020736,
        "meta_mean_motion_dot": 1.654e-05,
        "meta_mean_motion_ddot": 0,
        "tle_line1": "1 33320U 08041A   25335.90324499  .00001654  00000+0  20736-3 0  9998",
        "tle_line2": "2 33320  97.6533 324.6552 0020686  67.8721 292.4687 14.83337268929155"
      },
      "geometry": {
        "type": "Point",
        "coordinates": [
          148.63671134442026,
          25.217774310225312
        ]
      }
    },
    {
      "type": "Feature",
      "properties": {
        "norad_id": 33321,
        "name": "HUANJING 1B (HJ-1B)",
        "group": "resource",
        "lat": 35.82923153599117,
        "lon": -36.83092008311812,
        "alt_km": 610.0465711465858,
        "timestamp": "2025-12-02T06:27:52.677702+00:00",
        "meta_object_name": "HUANJING 1B (HJ-1B)",
        "meta_object_id": "2008-041B",
        "meta_epoch": "2025-12-01T20:35:03.789600",
        "meta_mean_motion": 14.82774654,
        "meta_eccentricity": 0.0038115,
        "meta_inclination": 97.6395,
        "meta_ra_of_asc_node": 328.3368,
        "meta_arg_of_pericenter": 110.1621,
        "meta_mean_anomaly": 250.37,
        "meta_ephemeris_type": 0,
        "meta_classification_type": "U",
        "meta_norad_cat_id": 33321,
        "meta_element_set_no": 999,
        "meta_rev_at_epoch": 92916,
        "meta_bstar": 0.00016761,
        "meta_mean_motion_dot": 1.32e-05,
        "meta_mean_motion_ddot": 0,
        "tle_line1": "1 33321U 08041B   25335.85768275  .00001320  00000+0  16761-3 0  9990",
        "tle_line2": "2 33321  97.6395 328.3368 0038115 110.1621 250.3700 14.82774654929168"
      },
      "geometry": {
        "type": "Point",
        "coordinates": [
          -36.83092008311812,
          35.82923153599117
        ]
      }
    },
    {
      "type": "Feature",
      "properties": {
        "norad_id": 33331,
        "name": "GEOEYE 1",
        "group": "resource",
        "lat": -19.952094844638175,
        "lon": 50.65370224836943,
        "alt_km": 680.8858088758489,
        "timestamp": "2025-12-02T06:27:52.677712+00:00",
        "meta_object_name": "GEOEYE 1",
        "meta_object_id": "2008-042A",
        "meta_epoch": "2025-12-01T19:04:49.206144",
        "meta_mean_motion": 14.64787211,
        "meta_eccentricity": 0.0003056,
        "meta_inclination": 98.1265,
        "meta_ra_of_asc_node": 47.2119,
        "meta_arg_of_pericenter": 323.7761,
        "meta_mean_anomaly": 36.3235,
        "meta_ephemeris_type": 0,
        "meta_classification_type": "U",
        "meta_norad_cat_id": 33331,
        "meta_element_set_no": 999,
        "meta_rev_at_epoch": 92125,
        "meta_bstar": 0.00013653,
        "meta_mean_motion_dot": 6.8e-06,
        "meta_mean_motion_ddot": 0,
        "tle_line1": "1 33331U 08042A   25335.79501396  .00000680  00000+0  13653-3 0  9999",
        "tle_line2": "2 33331  98.1265  47.2119 0003056 323.7761  36.3235 14.64787211921255"
      },
      "geometry": {
        "type": "Point",
        "coordinates": [
          50.65370224836943,
          -19.952094844638175
        ]
      }
    },
    {
      "type": "Feature",
      "properties": {
        "norad_id": 33396,
        "name": "THEOS",
        "group": "resource",
        "lat": 76.19612951179728,
        "lon": -3.2908918565831873,
        "alt_km": 817.0769808051655,
        "timestamp": "2025-12-02T06:27:52.677722+00:00",
        "meta_object_name": "THEOS",
        "meta_object_id": "2008-049A",
        "meta_epoch": "2025-12-01T19:56:50.621280",
        "meta_mean_motion": 14.20092499,
        "meta_eccentricity": 0.0001089,
        "meta_inclination": 98.5883,
        "meta_ra_of_asc_node": 34.2418,
        "meta_arg_of_pericenter": 100.4517,
        "meta_mean_anomaly": 259.6783,
        "meta_ephemeris_type": 0,
        "meta_classification_type": "U",
        "meta_norad_cat_id": 33396,
        "meta_element_set_no": 999,
        "meta_rev_at_epoch": 88995,
        "meta_bstar": 5.5461e-05,
        "meta_mean_motion_dot": 7.6e-07,
        "meta_mean_motion_ddot": 0,
        "tle_line1": "1 33396U 08049A   25335.83114145  .00000076  00000+0  55461-4 0  9997",
        "tle_line2": "2 33396  98.5883  34.2418 0001089 100.4517 259.6783 14.20092499889954"
      },
      "geometry": {
        "type": "Point",
        "coordinates": [
          -3.2908918565831873,
          76.19612951179728
        ]
      }
    }
  ]
}